{"type": "FeatureCollection", "features": [ {"type": "Feature", "properties": {"norad_id": 59600, "name": "GSAT0227 (GALILEO 30)", "group": "gnss", "lat": 52.45538352212334, "lon": 172.0765271601841, "alt_km": 23208.223449000463, "timestamp": "2025-12-07T07:31:36.543082+00:00", "meta": {"OBJECT_NAME": "GSAT0227 (GALILEO 30)", "OBJECT_ID": "2024-079C", "EPOCH": "2025-12-06T14:29:58.537536", "MEAN_MOTION": 1.70474646, "ECCENTRICITY": 0.00033412, "INCLINATION": 54.9931, "RA_OF_ASC_NODE": 106.4659, "ARG_OF_PERICENTER": 113.7646, "MEAN_ANOMALY": 246.2238, "EPHEMERIS_TYPE": 0, "CLASSIFICATION_TYPE": "U", "NORAD_CAT_ID": 59600, "ELEMENT_SET_NO": 999, "REV_AT_EPOCH": 1008, "BSTAR": 0, "MEAN_MOTION_DOT": 6e-08, "MEAN_MOTION_DDOT": 0}, "tle": {"line1": "1 59600U 24079C   25340.60414974  .00000006  00000+0  00000+0 0  9995", "line2": "2 59600  54.9931 106.4659 0003341 113.7646 246.2238  1.70474646 10088"}}, "geometry": {"type": "Point", "coordinates": [172.0765271601841, 52.45538352212334]}}, {"type": "Feature", "properties": {"norad_id": 61182, "name": "GSAT0232 (GALILEO 32)", "group": "gnss", "lat": -55.25268473936007, "lon": 136.4438963330737, "alt_km": 23224.56810892088, "timestamp": "2025-12-07T07:31:36.543095+00:00", "meta": {"OBJECT_NAME": "GSAT0232 (GALILEO 32)", "OBJECT_ID": "2024-167A", "EPOCH": "2025-12-04T05:35:38.594112", "MEAN_MOTION": 1.70473104, "ECCENTRICITY": 0.00021975, "INCLINATION": 55.2442, "RA_OF_ASC_NODE": 226.6647, "ARG_OF_PERICENTER": 213.7297, "MEAN_ANOMALY": 325.6534, "EPHEMERIS_TYPE": 0, "CLASSIFICATION_TYPE": "U", "NORAD_CAT_ID": 61182, "ELEMENT_SET_NO": 999, "REV_AT_EPOCH": 755, "BSTAR": 0, "MEAN_MOTION_DOT": 4.1e-07, "MEAN_MOTION_DDOT": 0}, "tle": {"line1": "1 61182U 24167A   25338.23308558  .00000041  00000+0  00000+0 0  9996", "line2": "2 61182  55.2442 226.6647 0002197 213.7297 325.6534  1.70473104  7557"}}, "geometry": {"type": "Point", "coordinates": [136.4438963330737, -55.25268473936007]}}, {"type": "Feature", "properties": {"norad_id": 61183, "name": "GSAT0226 (GALILEO 31)", "group": "gnss", "lat": 18.344717032828708, "lon": -120.1073065218305, "alt_km": 23220.665782209693, "timestamp": "2025-12-07T07:31:36.543107+00:00", "meta": {"OBJECT_NAME": "GSAT0226 (GALILEO 31)", "OBJECT_ID": "2024-167B", "EPOCH": "2025-12-06T09:26:36.340224", "MEAN_MOTION": 1.70473292, "ECCENTRICITY": 7.913e-05, "INCLINATION": 55.2417, "RA_OF_ASC_NODE": 226.6105, "ARG_OF_PERICENTER": 126.2936, "MEAN_ANOMALY": 51.6212, "EPHEMERIS_TYPE": 0, "CLASSIFICATION_TYPE": "U", "NORAD_CAT_ID": 61183, "ELEMENT_SET_NO": 999, "REV_AT_EPOCH": 756, "BSTAR": 0, "MEAN_MOTION_DOT": 3.3e-07, "MEAN_MOTION_DDOT": 0}, "tle": {"line1": "1 61183U 24167B   25340.39347616  .00000033  00000+0  00000+0 0  9996", "line2": "2 61183  55.2417 226.6105 0000791 126.2936  51.6212  1.70473292  7563"}}, "geometry": {"type": "Point", "coordinates": [-120.1073065218305, 18.344717032828708]}}, {"type": "Feature", "properties": {"norad_id": 61186, "name": "BEIDOU-3 M25 (C47)", "group": "gnss", "lat": 43.14460157450518, "lon": -9.437906184361195, "alt_km": 21531.080494170856, "timestamp": "2025-12-07T07:31:36.543119+00:00", "meta": {"OBJECT_NAME": "BEIDOU-3 M25 (C47)", "OBJECT_ID": "2024-168B", "EPOCH": "2025-12-06T03:42:38.696256", "MEAN_MOTION": 1.86229727, "ECCENTRICITY": 0.0005472, "INCLINATION": 54.6479, "RA_OF_ASC_NODE": 308.9479, "ARG_OF_PERICENTER": 294.8981, "MEAN_ANOMALY": 64.9511, "EPHEMERIS_TYPE": 0, "CLASSIFICATION_TYPE": "U", "NORAD_CAT_ID": 61186, "ELEMENT_SET_NO": 999, "REV_AT_EPOCH": 818, "BSTAR": 0, "MEAN_MOTION_DOT": -7.1e-07, "MEAN_MOTION_DDOT": 0}, "tle": {"line1": "1 61186U 24168B   25340.15461454 -.00000071  00000+0  00000+0 0  9994", "line2": "2 61186  54.6479 308.9479 0005472 294.8981  64.9511  1.86229727  8185"}}, "geometry": {"type": "Point", "coordinates": [-9.437906184361195, 43.14460157450518]}}, {"type": "Feature", "properties": {"norad_id": 61187, "name": "BEIDOU-3 M27 (C49)", "group": "gnss", "lat": -9.66873017946226, "lon": 135.81303801298708, "alt_km": 21534.481194264892, "timestamp": "2025-12-07T07:31:36.543132+00:00", "meta": {"OBJECT_NAME": "BEIDOU-3 M27 (C49)", "OBJECT_ID": "2024-168C", "EPOCH": "2025-12-06T00:40:37.892640", "MEAN_MOTION": 1.86229869, "ECCENTRICITY": 0.00022747, "INCLINATION": 54.6434, "RA_OF_ASC_NODE": 308.936, "ARG_OF_PERICENTER": 331.2531, "MEAN_ANOMALY": 78.7916, "EPHEMERIS_TYPE": 0, "CLASSIFICATION_TYPE": "U", "NORAD_CAT_ID": 61187, "ELEMENT_SET_NO": 999, "REV_AT_EPOCH": 566, "BSTAR": 0, "MEAN_MOTION_DOT": -7.1e-07, "MEAN_MOTION_DDOT": 0}, "tle": {"line1": "1 61187U 24168C   25340.02821635 -.00000071  00000+0  00000+0 0  9992", "line2": "2 61187  54.6434 308.9360 0002274 331.2531  78.7916  1.86229869  5669"}}, "geometry": {"type": "Point", "coordinates": [135.81303801298708, -9.66873017946226]}}, {"type": "Feature", "properties": {"norad_id": 62339, "name": "GPS BIII-7  (PRN 01)", "group": "gnss", "lat": -43.637147675005046, "lon": -60.10811305305679, "alt_km": 20163.296080438824, "timestamp": "2025-12-07T07:31:36.543144+00:00", "meta": {"OBJECT_NAME": "GPS BIII-7  (PRN 01)", "OBJECT_ID": "2024-242A", "EPOCH": "2025-12-06T03:34:51.967776", "MEAN_MOTION": 2.00567316, "ECCENTRICITY": 0.00118388, "INCLINATION": 54.9253, "RA_OF_ASC_NODE": 342.0071, "ARG_OF_PERICENTER": 343.7333, "MEAN_ANOMALY": 198.0861, "EPHEMERIS_TYPE": 0, "CLASSIFICATION_TYPE": "U", "NORAD_CAT_ID": 62339, "ELEMENT_SET_NO": 999, "REV_AT_EPOCH": 738, "BSTAR": 0, "MEAN_MOTION_DOT": -8.2e-07, "MEAN_MOTION_DDOT": 0}, "tle": {"line1": "1 62339U 24242A   25340.14921259 -.00000082  00000+0  00000+0 0  9993", "line2": "2 62339  54.9253 342.0071 0011838 343.7333 198.0861  2.00567316  7388"}}, "geometry": {"type": "Point", "coordinates": [-60.10811305305679, -43.637147675005046]}}, {"type": "Feature", "properties": {"norad_id": 62850, "name": "NVS-02 (IRNSS-1K)", "group": "gnss", "lat": -10.718076109472381, "lon": 179.1633639948678, "alt_km": 35948.7959889712, "timestamp": "2025-12-07T07:31:36.543157+00:00", "meta": {"OBJECT_NAME": "NVS-02 (IRNSS-1K)", "OBJECT_ID": "2025-020A", "EPOCH": "2025-12-06T13:46:46.652448", "MEAN_MOTION": 2.17587927, "ECCENTRICITY": 0.73477674, "INCLINATION": 20.9998, "RA_OF_ASC_NODE": 329.8906, "ARG_OF_PERICENTER": 22.2328, "MEAN_ANOMALY": 357.6942, "EPHEMERIS_TYPE": 0, "CLASSIFICATION_TYPE": "U", "NORAD_CAT_ID": 62850, "ELEMENT_SET_NO": 999, "REV_AT_EPOCH": 678, "BSTAR": 0.00028991878, "MEAN_MOTION_DOT": 3.02e-06, "MEAN_MOTION_DDOT": 0}, "tle": {"line1": "1 62850U 25020A   25340.57415107  .00000302  00000+0  28992-3 0  9991", "line2": "2 62850  20.9998 329.8906 7347767  22.2328 357.6942  2.17587927  6782"}}, "geometry": {"type": "Point", "coordinates": [179.1633639948678, -10.718076109472381]}}, {"type": "Feature", "properties": {"norad_id": 63130, "name": "COSMOS 2584 (704K)", "group": "gnss", "lat": 61.753579635078815, "lon": 139.58014227959433, "alt_km": 19137.571930388844, "timestamp": "2025-12-07T07:31:36.543169+00:00", "meta": {"OBJECT_NAME": "COSMOS 2584 (704K)", "OBJECT_ID": "2025-042A", "EPOCH": "2025-12-05T08:05:04.392960", "MEAN_MOTION": 2.13102926, "ECCENTRICITY": 0.00075778, "INCLINATION": 64.9722, "RA_OF_ASC_NODE": 79.3982, "ARG_OF_PERICENTER": 214.8728, "MEAN_ANOMALY": 145.0805, "EPHEMERIS_TYPE": 0, "CLASSIFICATION_TYPE": "U", "NORAD_CAT_ID": 63130, "ELEMENT_SET_NO": 999, "REV_AT_EPOCH": 591, "BSTAR": 0, "MEAN_MOTION_DOT": -2.1e-07, "MEAN_MOTION_DDOT": 0}, "tle": {"line1": "1 63130U 25042A   25339.33685640 -.00000021  00000+0  00000+0 0  9995", "line2": "2 63130  64.9722  79.3982 0007577 214.8728 145.0805  2.13102926  5915"}}, "geometry": {"type": "Point", "coordinates": [139.58014227959433, 61.753579635078815]}}, {"type": "Feature", "properties": {"norad_id": 64202, "name": "GPS BIII-8  (PRN 21)", "group": "gnss", "lat": 37.38683764760209, "lon": -173.3229489822991, "alt_km": 20191.291467309096, "timestamp": "2025-12-07T07:31:36.543180+00:00", "meta": {"OBJECT_NAME": "GPS BIII-8  (PRN 21)", "OBJECT_ID": "2025-116A", "EPOCH": "2025-12-03T06:10:25.375296", "MEAN_MOTION": 2.00558491, "ECCENTRICITY": 0.0004994, "INCLINATION": 55.0986, "RA_OF_ASC_NODE": 39.0246, "ARG_OF_PERICENTER": 306.9577, "MEAN_ANOMALY": 136.4728, "EPHEMERIS_TYPE": 0, "CLASSIFICATION_TYPE": "U", "NORAD_CAT_ID": 64202, "ELEMENT_SET_NO": 999, "REV_AT_EPOCH": 394, "BSTAR": 0, "MEAN_MOTION_DOT": -6.8e-07, "MEAN_MOTION_DDOT": 0}, "tle": {"line1": "1 64202U 25116A   25337.25723814 -.00000068  00000+0  00000+0 0  9994", "line2": "2 64202  55.0986  39.0246 0004994 306.9577 136.4728  2.00558491  3947"}}, "geometry": {"type": "Point", "coordinates": [-173.3229489822991, 37.38683764760209]}}, {"type": "Feature", "properties": {"norad_id": 65590, "name": "COSMOS 2596 (708K)", "group": "gnss", "lat": -13.465440227728196, "lon": 148.1389034818046, "alt_km": 19144.450014573264, "timestamp": "2025-12-07T07:31:36.543193+00:00", "meta": {"OBJECT_NAME": "COSMOS 2596 (708K)", "OBJECT_ID": "2025-206B", "EPOCH": "2025-12-05T10:56:18.216960", "MEAN_MOTION": 2.13100168, "ECCENTRICITY": 0.00140237, "INCLINATION": 64.7483, "RA_OF_ASC_NODE": 321.7274, "ARG_OF_PERICENTER": 304.902, "MEAN_ANOMALY": 264.8431, "EPHEMERIS_TYPE": 0, "CLASSIFICATION_TYPE": "U", "NORAD_CAT_ID": 65590, "ELEMENT_SET_NO": 999, "REV_AT_EPOCH": 177, "BSTAR": 0, "MEAN_MOTION_DOT": -5e-07, "MEAN_MOTION_DDOT": 0}, "tle": {"line1": "1 65590U 25206B   25339.45576640 -.00000050  00000+0  00000+0 0  9993", "line2": "2 65590  64.7483 321.7274 0014023 304.9020 264.8431  2.13100168  1778"}}, "geometry": {"type": "Point", "coordinates": [148.1389034818046, -13.465440227728196]}}]}